{
  "type": "FeatureCollection",
  "features": [
    {
      "type": "Feature",
      "properties": {
        "norad_id": 43564,
        "name": "GSAT0221 (GALILEO 25)",
        "group": "galileo",
        "lat": -48.8663499074616,
        "lon": -60.87716745250665,
        "alt_km": 23207.971329329728,
        "timestamp": "2025-12-18T07:01:54.852588+00:00",
        "meta_object_name": "GSAT0221 (GALILEO 25)",
        "meta_object_id": "2018-060A",
        "meta_epoch": "2025-12-16T15:17:04.727328",
        "meta_mean_motion": 1.70475939,
        "meta_eccentricity": 0.00067149,
        "meta_inclination": 57.227,
        "meta_ra_of_asc_node": 346.7122,
        "meta_arg_of_pericenter": 284.7642,
        "meta_mean_anomaly": 75.1785,
        "meta_ephemeris_type": 0,
        "meta_classification_type": "U",
        "meta_norad_cat_id": 43564,
        "meta_element_set_no": 999,
        "meta_rev_at_epoch": 4605,
        "meta_bstar": 0,
        "meta_mean_motion_dot": -8e-07,
        "meta_mean_motion_ddot": 0,
        "tle_line1": "1 43564U 18060A   25350.63686027 -.00000080  00000+0  00000+0 0  9997",
        "tle_line2": "2 43564  57.2270 346.7122 0006714 284.7642  75.1785  1.70475939 46056"
      },
      "geometry": {
        "type": "Point",
        "coordinates": [
          -60.87716745250665,
          -48.8663499074616
        ]
      }
    },
    {
      "type": "Feature",
      "properties": {
        "norad_id": 43565,
        "name": "GSAT0222 (GALILEO 26)",
        "group": "galileo",
        "lat": 15.30386235818947,
        "lon": 156.51159110260411,
        "alt_km": 23224.551695220172,
        "timestamp": "2025-12-18T07:01:54.852599+00:00",
        "meta_object_name": "GSAT0222 (GALILEO 26)",
        "meta_object_id": "2018-060B",
        "meta_epoch": "2025-12-17T10:37:36.955776",
        "meta_mean_motion": 1.70475657,
        "meta_eccentricity": 0.0006092,
        "meta_inclination": 57.2302,
        "meta_ra_of_asc_node": 346.6935,
        "meta_arg_of_pericenter": 265.3285,
        "meta_mean_anomaly": 94.6178,
        "meta_ephemeris_type": 0,
        "meta_classification_type": "U",
        "meta_norad_cat_id": 43565,
        "meta_element_set_no": 999,
        "meta_rev_at_epoch": 4611,
        "meta_bstar": 0,
        "meta_mean_motion_dot": -7.8e-07,
        "meta_mean_motion_ddot": 0,
        "tle_line1": "1 43565U 18060B   25351.44278884 -.00000078  00000+0  00000+0 0  9993",
        "tle_line2": "2 43565  57.2302 346.6935 0006092 265.3285  94.6178  1.70475657 46117"
      },
      "geometry": {
        "type": "Point",
        "coordinates": [
          156.51159110260411,
          15.30386235818947
        ]
      }
    },
    {
      "type": "Feature",
      "properties": {
        "norad_id": 43566,
        "name": "GSAT0219 (GALILEO 23)",
        "group": "galileo",
        "lat": 21.688348347220234,
        "lon": 1.5140748241141258,
        "alt_km": 23221.865304255705,
        "timestamp": "2025-12-18T07:01:54.852610+00:00",
        "meta_object_name": "GSAT0219 (GALILEO 23)",
        "meta_object_id": "2018-060C",
        "meta_epoch": "2025-12-15T21:42:00.874656",
        "meta_mean_motion": 1.70475845,
        "meta_eccentricity": 0.00058258,
        "meta_inclination": 57.2298,
        "meta_ra_of_asc_node": 346.7365,
        "meta_arg_of_pericenter": 287.9846,
        "meta_mean_anomaly": 71.9699,
        "meta_ephemeris_type": 0,
        "meta_classification_type": "U",
        "meta_norad_cat_id": 43566,
        "meta_element_set_no": 999,
        "meta_rev_at_epoch": 4606,
        "meta_bstar": 0,
        "meta_mean_motion_dot": -8.2e-07,
        "meta_mean_motion_ddot": 0,
        "tle_line1": "1 43566U 18060C   25349.90417679 -.00000082  00000+0  00000+0 0  9994",
        "tle_line2": "2 43566  57.2298 346.7365 0005825 287.9846  71.9699  1.70475845 46065"
      },
      "geometry": {
        "type": "Point",
        "coordinates": [
          1.5140748241141258,
          21.688348347220234
        ]
      }
    },
    {
      "type": "Feature",
      "properties": {
        "norad_id": 43567,
        "name": "GSAT0220 (GALILEO 24)",
        "group": "galileo",
        "lat": -52.37114745315364,
        "lon": -136.6384064187132,
        "alt_km": 23212.923962863446,
        "timestamp": "2025-12-18T07:01:54.852621+00:00",
        "meta_object_name": "GSAT0220 (GALILEO 24)",
        "meta_object_id": "2018-060D",
        "meta_epoch": "2025-12-13T18:41:25.404000",
        "meta_mean_motion": 1.70475925,
        "meta_eccentricity": 0.00061008,
        "meta_inclination": 57.2299,
        "meta_ra_of_asc_node": 346.7937,
        "meta_arg_of_pericenter": 285.541,
        "meta_mean_anomaly": 74.4106,
        "meta_ephemeris_type": 0,
        "meta_classification_type": "U",
        "meta_norad_cat_id": 43567,
        "meta_element_set_no": 999,
        "meta_rev_at_epoch": 4601,
        "meta_bstar": 0,
        "meta_mean_motion_dot": -8.5e-07,
        "meta_mean_motion_ddot": 0,
        "tle_line1": "1 43567U 18060D   25347.77876625 -.00000085  00000+0  00000+0 0  9991",
        "tle_line2": "2 43567  57.2299 346.7937 0006100 285.5410  74.4106  1.70475925 46015"
      },
      "geometry": {
        "type": "Point",
        "coordinates": [
          -136.6384064187132,
          -52.37114745315364
        ]
      }
    },
    {
      "type": "Feature",
      "properties": {
        "norad_id": 49809,
        "name": "GSAT0223 (GALILEO 27)",
        "group": "galileo",
        "lat": -15.695627424117927,
        "lon": -23.87734923438415,
        "alt_km": 23223.519508831752,
        "timestamp": "2025-12-18T07:01:54.852646+00:00",
        "meta_object_name": "GSAT0223 (GALILEO 27)",
        "meta_object_id": "2021-116A",
        "meta_epoch": "2025-12-16T20:22:21.643104",
        "meta_mean_motion": 1.70476101,
        "meta_eccentricity": 0.00044272,
        "meta_inclination": 57.2185,
        "meta_ra_of_asc_node": 346.6017,
        "meta_arg_of_pericenter": 254.1798,
        "meta_mean_anomaly": 280.7094,
        "meta_ephemeris_type": 0,
        "meta_classification_type": "U",
        "meta_norad_cat_id": 49809,
        "meta_element_set_no": 999,
        "meta_rev_at_epoch": 2507,
        "meta_bstar": 0,
        "meta_mean_motion_dot": -7.9e-07,
        "meta_mean_motion_ddot": 0,
        "tle_line1": "1 49809U 21116A   25350.84886161 -.00000079  00000+0  00000+0 0  9993",
        "tle_line2": "2 49809  57.2185 346.6017 0004427 254.1798 280.7094  1.70476101 25071"
      },
      "geometry": {
        "type": "Point",
        "coordinates": [
          -23.87734923438415,
          -15.695627424117927
        ]
      }
    },
    {
      "type": "Feature",
      "properties": {
        "norad_id": 49810,
        "name": "GSAT0224 (GALILEO 28)",
        "group": "galileo",
        "lat": 57.00423055019037,
        "lon": 83.51089047329677,
        "alt_km": 23226.284891549873,
        "timestamp": "2025-12-18T07:01:54.852659+00:00",
        "meta_object_name": "GSAT0224 (GALILEO 28)",
        "meta_object_id": "2021-116B",
        "meta_epoch": "2025-12-16T23:13:52.406688",
        "meta_mean_motion": 1.70476122,
        "meta_eccentricity": 0.00037953,
        "meta_inclination": 57.2194,
        "meta_ra_of_asc_node": 346.5971,
        "meta_arg_of_pericenter": 257.7514,
        "meta_mean_anomaly": 102.8295,
        "meta_ephemeris_type": 0,
        "meta_classification_type": "U",
        "meta_norad_cat_id": 49810,
        "meta_element_set_no": 999,
        "meta_rev_at_epoch": 2510,
        "meta_bstar": 0,
        "meta_mean_motion_dot": -7.9e-07,
        "meta_mean_motion_ddot": 0,
        "tle_line1": "1 49810U 21116B   25350.96796767 -.00000079  00000+0  00000+0 0  9990",
        "tle_line2": "2 49810  57.2194 346.5971 0003795 257.7514 102.8295  1.70476122 25107"
      },
      "geometry": {
        "type": "Point",
        "coordinates": [
          83.51089047329677,
          57.00423055019037
        ]
      }
    },
    {
      "type": "Feature",
      "properties": {
        "norad_id": 59598,
        "name": "GSAT0225 (GALILEO 29)",
        "group": "galileo",
        "lat": 54.85040145404581,
        "lon": -170.26963721109726,
        "alt_km": 23216.340882813794,
        "timestamp": "2025-12-18T07:01:54.852671+00:00",
        "meta_object_name": "GSAT0225 (GALILEO 29)",
        "meta_object_id": "2024-079A",
        "meta_epoch": "2025-12-16T09:22:38.225280",
        "meta_mean_motion": 1.70475011,
        "meta_eccentricity": 0.00021396,
        "meta_inclination": 55.0038,
        "meta_ra_of_asc_node": 106.1932,
        "meta_arg_of_pericenter": 182.0305,
        "meta_mean_anomaly": 176.7742,
        "meta_ephemeris_type": 0,
        "meta_classification_type": "U",
        "meta_norad_cat_id": 59598,
        "meta_element_set_no": 999,
        "meta_rev_at_epoch": 1019,
        "meta_bstar": 0,
        "meta_mean_motion_dot": -1e-07,
        "meta_mean_motion_ddot": 0,
        "tle_line1": "1 59598U 24079A   25350.39072020 -.00000010  00000+0  00000+0 0  9996",
        "tle_line2": "2 59598  55.0038 106.1932 0002139 182.0305 176.7742  1.70475011 10196"
      },
      "geometry": {
        "type": "Point",
        "coordinates": [
          -170.26963721109726,
          54.85040145404581
        ]
      }
    }
  ]
}